sat43128
1 43128U 18004T   20046.72361011  .00013530  00000-0  91739-4 0  9999
2 43128  96.7730 101.8348 0006232 273.3791  86.6762 15.75067368120031
